start=new Date('2022-08-21T00:00:00.000Z').valueOf();
sats=[{"MEAN_MOTION":"15.06390462","SEMIMAJOR_AXIS":"6925.378","OBJECT_ID":"2021-038Q","NORAD_CAT_ID":"48367","OBJECT_TYPE":"PAYLOAD","RCS_SIZE":"LARGE","EPHEMERIS_TYPE":"0","REF_FRAME":"TEME","MEAN_MOTION_DDOT":"0.0000000000000","MEAN_ANOMALY":"262.7447","CENTER_NAME":"EARTH","REV_AT_EPOCH":"7169","CLASSIFICATION_TYPE":"U","COUNTRY_CODE":"US","RA_OF_ASC_NODE":"53.4858","OBJECT_NAME":"STARLINK-2643","GP_ID":"210619356","TIME_SYSTEM":"UTC","MEAN_ELEMENT_THEORY":"SGP4","MEAN_MOTION_DOT":"-0.00000467","DECAY_DATE":null,"FILE":"3541760","ELEMENT_SET_NO":"999","TLE_LINE1":"1 48367U 21038Q   22232.82333815 -.00000467  00000-0 -12474-4 0  9997","LAUNCH_DATE":"2021-05-04","PERIOD":"95.593","EPOCH":"2022-08-20T19:45:36.416160","ARG_OF_PERICENTER":"97.3673","SITE":"AFETR","APOAPSIS":"548.041","ECCENTRICITY":"0.00011520","PERIAPSIS":"546.445","TLE_LINE2":"2 48367  53.0551  53.4858 0001152  97.3673 262.7447 15.06390462 71697","BSTAR":"-0.00001247400000","INCLINATION":"53.0551"},{"REF_FRAME":"TEME","EPHEMERIS_TYPE":"0","RCS_SIZE":"LARGE","OBJECT_TYPE":"PAYLOAD","NORAD_CAT_ID":"48368","OBJECT_ID":"2021-038R","SEMIMAJOR_AXIS":"6925.371","MEAN_MOTION":"15.06392566","COUNTRY_CODE":"US","RA_OF_ASC_NODE":"53.8637","CLASSIFICATION_TYPE":"U","REV_AT_EPOCH":"7169","CENTER_NAME":"EARTH","MEAN_ANOMALY":"275.4294","MEAN_MOTION_DDOT":"0.0000000000000","APOAPSIS":"548.067","SITE":"AFETR","PERIOD":"95.593","EPOCH":"2022-08-20T19:13:48.133920","ARG_OF_PERICENTER":"84.6832","LAUNCH_DATE":"2021-05-04","TLE_LINE1":"1 48368U 21038R   22232.80125155 -.00000623  00000-0 -22941-4 0  9996","ELEMENT_SET_NO":"999","FILE":"3541760","DECAY_DATE":null,"MEAN_ELEMENT_THEORY":"SGP4","MEAN_MOTION_DOT":"-0.00000623","GP_ID":"210620104","TIME_SYSTEM":"UTC","OBJECT_NAME":"STARLINK-2623","INCLINATION":"53.0566","TLE_LINE2":"2 48368  53.0566  53.8637 0001199  84.6832 275.4294 15.06392566 71698","BSTAR":"-0.00002294100000","PERIAPSIS":"546.406","ECCENTRICITY":"0.00011990"},{"OBJECT_NAME":"STARLINK-2641","TIME_SYSTEM":"UTC","GP_ID":"210620330","FILE":"3541760","DECAY_DATE":null,"MEAN_MOTION_DOT":"-0.00001756","MEAN_ELEMENT_THEORY":"SGP4","TLE_LINE1":"1 48369U 21038S   22232.81965326 -.00001756  00000-0 -99044-4 0  9996","ELEMENT_SET_NO":"999","PERIOD":"95.593","EPOCH":"2022-08-20T19:40:18.041664","ARG_OF_PERICENTER":"74.9981","LAUNCH_DATE":"2021-05-04","SITE":"AFETR","APOAPSIS":"548.322","ECCENTRICITY":"0.00015550","PERIAPSIS":"546.168","BSTAR":"-0.00009904400000","TLE_LINE2":"2 48369  53.0562  53.5052 0001555  74.9981 285.1180 15.06389858 71698","INCLINATION":"53.0562","MEAN_MOTION":"15.06389858","SEMIMAJOR_AXIS":"6925.380","OBJECT_ID":"2021-038S","OBJECT_TYPE":"PAYLOAD","NORAD_CAT_ID":"48369","RCS_SIZE":"LARGE","REF_FRAME":"TEME","EPHEMERIS_TYPE":"0","MEAN_MOTION_DDOT":"0.0000000000000","CENTER_NAME":"EARTH","MEAN_ANOMALY":"285.1180","REV_AT_EPOCH":"7169","COUNTRY_CODE":"US","RA_OF_ASC_NODE":"53.5052","CLASSIFICATION_TYPE":"U"},{"PERIAPSIS":"546.260","ECCENTRICITY":"0.00014390","INCLINATION":"53.0552","TLE_LINE2":"2 48370  53.0552  53.5173 0001439  77.3074 282.8076 15.06385830 71698","BSTAR":"-0.00005511300000","FILE":"3541760","DECAY_DATE":null,"MEAN_MOTION_DOT":"-0.00001102","MEAN_ELEMENT_THEORY":"SGP4","GP_ID":"210619106","TIME_SYSTEM":"UTC","OBJECT_NAME":"STARLINK-2621","APOAPSIS":"548.254","SITE":"AFETR","PERIOD":"95.593","ARG_OF_PERICENTER":"77.3074","EPOCH":"2022-08-20T19:35:00.049056","LAUNCH_DATE":"2021-05-04","TLE_LINE1":"1 48370U 21038T   22232.81597279 -.00001102  00000-0 -55113-4 0  9990","ELEMENT_SET_NO":"999","REV_AT_EPOCH":"7169","CENTER_NAME":"EARTH","MEAN_ANOMALY":"282.8076","MEAN_MOTION_DDOT":"0.0000000000000","COUNTRY_CODE":"US","RA_OF_ASC_NODE":"53.5173","CLASSIFICATION_TYPE":"U","OBJECT_ID":"2021-038T","SEMIMAJOR_AXIS":"6925.392","MEAN_MOTION":"15.06385830","REF_FRAME":"TEME","EPHEMERIS_TYPE":"0","RCS_SIZE":"LARGE","OBJECT_TYPE":"PAYLOAD","NORAD_CAT_ID":"48370"},{"TLE_LINE2":"2 48371  53.0560  53.5437 0001229  83.9621 276.1508 15.06394713 71695","BSTAR":"-0.00005663100000","INCLINATION":"53.0560","ECCENTRICITY":"0.00012290","PERIAPSIS":"546.379","LAUNCH_DATE":"2021-05-04","ARG_OF_PERICENTER":"83.9621","PERIOD":"95.592","EPOCH":"2022-08-20T19:29:40.664544","ELEMENT_SET_NO":"999","TLE_LINE1":"1 48371U 21038U   22232.81227621 -.00001125  00000-0 -56631-4 0  9993","APOAPSIS":"548.081","SITE":"AFETR","GP_ID":"210618857","TIME_SYSTEM":"UTC","OBJECT_NAME":"STARLINK-2589","MEAN_MOTION_DOT":"-0.00001125","MEAN_ELEMENT_THEORY":"SGP4","DECAY_DATE":null,"FILE":"3541760","CLASSIFICATION_TYPE":"U","COUNTRY_CODE":"US","RA_OF_ASC_NODE":"53.5437","MEAN_MOTION_DDOT":"0.0000000000000","REV_AT_EPOCH":"7169","MEAN_ANOMALY":"276.1508","CENTER_NAME":"EARTH","RCS_SIZE":"LARGE","NORAD_CAT_ID":"48371","OBJECT_TYPE":"PAYLOAD","EPHEMERIS_TYPE":"0","REF_FRAME":"TEME","MEAN_MOTION":"15.06394713","OBJECT_ID":"2021-038U","SEMIMAJOR_AXIS":"6925.365"},{"TLE_LINE2":"2 48372  53.0558  53.5591 0001367  79.4231 280.6912 15.06386212 71698","BSTAR":"-0.00009755400000","INCLINATION":"53.0558","ECCENTRICITY":"0.00013670","PERIAPSIS":"546.309","ELEMENT_SET_NO":"999","TLE_LINE1":"1 48372U 21038V   22232.80860075 -.00001734  00000-0 -97554-4 0  9994","LAUNCH_DATE":"2021-05-04","PERIOD":"95.593","ARG_OF_PERICENTER":"79.4231","EPOCH":"2022-08-20T19:24:23.104800","SITE":"AFETR","APOAPSIS":"548.203","OBJECT_NAME":"STARLINK-2572","TIME_SYSTEM":"UTC","GP_ID":"210619605","MEAN_MOTION_DOT":"-0.00001734","MEAN_ELEMENT_THEORY":"SGP4","DECAY_DATE":null,"FILE":"3541760","CLASSIFICATION_TYPE":"U","COUNTRY_CODE":"US","RA_OF_ASC_NODE":"53.5591","MEAN_MOTION_DDOT":"0.0000000000000","MEAN_ANOMALY":"280.6912","CENTER_NAME":"EARTH","REV_AT_EPOCH":"7169","NORAD_CAT_ID":"48372","OBJECT_TYPE":"PAYLOAD","RCS_SIZE":"LARGE","EPHEMERIS_TYPE":"0","REF_FRAME":"TEME","MEAN_MOTION":"15.06386212","SEMIMAJOR_AXIS":"6925.391","OBJECT_ID":"2021-038V"},{"NORAD_CAT_ID":"48373","OBJECT_TYPE":"PAYLOAD","RCS_SIZE":"LARGE","EPHEMERIS_TYPE":"0","REF_FRAME":"TEME","MEAN_MOTION":"15.06391311","SEMIMAJOR_AXIS":"6925.375","OBJECT_ID":"2021-038W","CLASSIFICATION_TYPE":"U","RA_OF_ASC_NODE":"53.8593","COUNTRY_CODE":"US","MEAN_MOTION_DDOT":"0.0000000000000","MEAN_ANOMALY":"266.0043","CENTER_NAME":"EARTH","REV_AT_EPOCH":"7168","ELEMENT_SET_NO":"999","TLE_LINE1":"1 48373U 21038W   22232.73855964 -.00001875  00000-0 -10703-3 0  9994","LAUNCH_DATE":"2021-05-04","ARG_OF_PERICENTER":"94.1105","PERIOD":"95.593","EPOCH":"2022-08-20T17:43:31.552896","SITE":"AFETR","APOAPSIS":"548.201","OBJECT_NAME":"STARLINK-2609","TIME_SYSTEM":"UTC","GP_ID":"210619831","MEAN_ELEMENT_THEORY":"SGP4","MEAN_MOTION_DOT":"-0.00001875","DECAY_DATE":null,"FILE":"3541760","TLE_LINE2":"2 48373  53.0550  53.8593 0001388  94.1105 266.0043 15.06391311 71681","BSTAR":"-0.00010703000000","INCLINATION":"53.0550","ECCENTRICITY":"0.00013880","PERIAPSIS":"546.279"},{"MEAN_MOTION_DDOT":"0.0000000000000","REV_AT_EPOCH":"7169","CENTER_NAME":"EARTH","MEAN_ANOMALY":"267.5942","RA_OF_ASC_NODE":"53.5724","COUNTRY_CODE":"US","CLASSIFICATION_TYPE":"U","MEAN_MOTION":"15.06396365","OBJECT_ID":"2021-038X","SEMIMAJOR_AXIS":"6925.360","RCS_SIZE":"LARGE","OBJECT_TYPE":"PAYLOAD","NORAD_CAT_ID":"48374","REF_FRAME":"TEME","EPHEMERIS_TYPE":"0","ECCENTRICITY":"0.00012510","PERIAPSIS":"546.358","TLE_LINE2":"2 48374  53.0547  53.5724 0001251  92.5190 267.5942 15.06396365 71695","BSTAR":"0.00000066642000","INCLINATION":"53.0547","TIME_SYSTEM":"UTC","GP_ID":"210618607","OBJECT_NAME":"STARLINK-2604","DECAY_DATE":null,"FILE":"3541760","MEAN_MOTION_DOT":"-0.00000271","MEAN_ELEMENT_THEORY":"SGP4","EPOCH":"2022-08-20T19:12:23.100768","PERIOD":"95.592","ARG_OF_PERICENTER":"92.5190","LAUNCH_DATE":"2021-05-04","TLE_LINE1":"1 48374U 21038X   22232.80026737 -.00000271  00000-0  66642-6 0  9995","ELEMENT_SET_NO":"999","APOAPSIS":"548.091","SITE":"AFETR"},{"ELEMENT_SET_NO":"999","TLE_LINE1":"1 48375U 21038Y   22232.79752916  .00000096  00000-0  25357-4 0  9999","LAUNCH_DATE":"2021-05-04","PERIOD":"95.592","ARG_OF_PERICENTER":"76.9142","EPOCH":"2022-08-20T19:08:26.519424","SITE":"AFETR","APOAPSIS":"548.104","OBJECT_NAME":"STARLINK-2603","GP_ID":"210619357","TIME_SYSTEM":"UTC","MEAN_MOTION_DOT":"0.00000096","MEAN_ELEMENT_THEORY":"SGP4","DECAY_DATE":null,"FILE":"3541760","TLE_LINE2":"2 48375  53.0551  53.5977 0001262  76.9142 283.1988 15.06394698 71697","BSTAR":"0.00002535700000","INCLINATION":"53.0551","ECCENTRICITY":"0.00012620","PERIAPSIS":"546.356","NORAD_CAT_ID":"48375","OBJECT_TYPE":"PAYLOAD","RCS_SIZE":"LARGE","EPHEMERIS_TYPE":"0","REF_FRAME":"TEME","MEAN_MOTION":"15.06394698","SEMIMAJOR_AXIS":"6925.365","OBJECT_ID":"2021-038Y","CLASSIFICATION_TYPE":"U","RA_OF_ASC_NODE":"53.5977","COUNTRY_CODE":"US","MEAN_MOTION_DDOT":"0.0000000000000","MEAN_ANOMALY":"283.1988","CENTER_NAME":"EARTH","REV_AT_EPOCH":"7169"},{"REF_FRAME":"TEME","EPHEMERIS_TYPE":"0","OBJECT_TYPE":"PAYLOAD","NORAD_CAT_ID":"48376","RCS_SIZE":"LARGE","SEMIMAJOR_AXIS":"6925.375","OBJECT_ID":"2021-038Z","MEAN_MOTION":"15.06391404","RA_OF_ASC_NODE":"53.6255","COUNTRY_CODE":"US","CLASSIFICATION_TYPE":"U","CENTER_NAME":"EARTH","MEAN_ANOMALY":"266.3016","REV_AT_EPOCH":"7169","MEAN_MOTION_DDOT":"0.0000000000000","SITE":"AFETR","APOAPSIS":"548.253","TLE_LINE1":"1 48376U 21038Z   22232.79385326 -.00000522  00000-0 -16142-4 0  9995","ELEMENT_SET_NO":"999","PERIOD":"95.593","EPOCH":"2022-08-20T19:03:08.921664","ARG_OF_PERICENTER":"93.8140","LAUNCH_DATE":"2021-05-04","DECAY_DATE":null,"FILE":"3541760","MEAN_ELEMENT_THEORY":"SGP4","MEAN_MOTION_DOT":"-0.00000522","OBJECT_NAME":"STARLINK-2610","GP_ID":"210620105","TIME_SYSTEM":"UTC","INCLINATION":"53.0559","TLE_LINE2":"2 48376  53.0559  53.6255 0001463  93.8140 266.3016 15.06391404 71692","BSTAR":"-0.00001614200000","PERIAPSIS":"546.227","ECCENTRICITY":"0.00014630"}];
